NORAD_CAT_ID,OBJECT_NAME,OBJECT_TYPE,EPOCH,MEAN_MOTION,ECCENTRICITY,INCLINATION,RA_OF_ASC_NODE,ARG_OF_PERICENTER,MEAN_ANOMALY,BSTAR,MEAN_MOTION_DOT,MEAN_MOTION_DDOT,TLE_LINE0,TLE_LINE1,TLE_LINE2,SEMIMAJOR_AXIS,PERIOD,APOGEE,PERIGEE,DECAYED
52879.0,STARLINK-4139,PAYLOAD,2023-08-30 06:08:31,15.08831632,0.0001445,53.2174,195.0879,88.245,271.8708,5.5912e-05,6.02e-06,0.0,0 STARLINK-4139,1 52879U 22062BB  23242.25591444  .00000602  00000-0  55912-4 0  9994,2 52879  53.2174 195.0879 0001445  88.2450 271.8708 15.08831632 67301,6917.906,95.438,540.771,538.771,0.0
52879.0,STARLINK-4139,PAYLOAD,2023-08-30 14:05:26,15.08836485,0.0001352,53.2168,193.6004,85.9104,274.2042,4.2811e-05,3.93e-06,0.0,0 STARLINK-4139,1 52879U 22062BB  23242.58711238  .00000393  00000-0  42811-4 0  9996,2 52879  53.2168 193.6004 0001352  85.9104 274.2042 15.08836485 66864,6917.891,95.438,540.691,538.821,0.0
52879.0,STARLINK-4139,PAYLOAD,2023-08-31 02:48:31,15.08844534,0.0001301,53.2168,191.2224,90.5632,269.5509,7.7936e-05,9.53e-06,0.0,0 STARLINK-4139,1 52879U 22062BB  23243.11702638  .00000953  00000-0  77936-4 0  9998,2 52879  53.2168 191.2224 0001301  90.5632 269.5509 15.08844534 67437,6917.867,95.437,540.632,538.832,0.0
52879.0,STARLINK-4139,PAYLOAD,2023-08-31 20:17:46,15.08834226,0.0001693,53.2158,187.9502,83.4314,276.6871,7.1398e-05,8.48e-06,0.0,0 STARLINK-4139,1 52879U 22062BB  23243.84567396  .00000848  00000-0  71398-4 0  9997,2 52879  53.2158 187.9502 0001693  83.4314 276.6871 15.08834226 67055,6917.898,95.438,540.934,538.592,0.0
52879.0,STARLINK-4139,PAYLOAD,2023-09-01 02:39:18,15.08832286,0.0001349,53.2171,186.7614,83.4137,276.7009,7.0657e-05,8.37e-06,0.0,0 STARLINK-4139,1 52879U 22062BB  23244.11063613  .00000837  00000-0  70657-4 0  9996,2 52879  53.2171 186.7614 0001349  83.4137 276.7009 15.08832286 67588,6917.904,95.438,540.702,538.836,0.0
52879.0,STARLINK-4139,PAYLOAD,2023-09-01 13:47:00,15.08841347,0.0001439,53.217,184.6788,87.1833,272.9324,6.9377e-05,8.16e-06,0.0,0 STARLINK-4139,1 52879U 22062BB  23244.57431104  .00000816  00000-0  69377-4 0  9994,2 52879  53.2170 184.6788 0001439  87.1833 272.9324 15.08841347 67160,6917.876,95.437,540.737,538.746,0.0
52879.0,STARLINK-4139,PAYLOAD,2023-09-02 05:40:53,15.08736303,0.0002382,53.2169,181.7036,91.2156,268.9109,0.0017263,0.00027215,0.0,0 STARLINK-4139,1 52879U 22062BB  23245.23672947  .00027215  00000-0  17263-2 0  9997,2 52879  53.2169 181.7036 0002382  91.2156 268.9109 15.08736303 67750,6918.197,95.444,541.71,538.414,0.0
52879.0,STARLINK-4139,PAYLOAD,2023-09-02 19:59:20,15.0883733,0.0001556,53.2171,179.0288,92.3801,267.7369,1.021e-05,-1.26e-06,0.0,0 STARLINK-4139,1 52879U 22062BB  23245.83287314 -.00000126  00000-0  10210-4 0  9993,2 52879  53.2171 179.0288 0001556  92.3801 267.7369 15.08837330 67356,6917.889,95.438,540.83,538.677,0.0
52879.0,STARLINK-4139,PAYLOAD,2023-09-03 02:20:52,15.08843239,0.0001291,53.2168,177.8394,89.3159,270.7981,6.6101e-05,7.64e-06,0.0,0 STARLINK-4139,1 52879U 22062BB  23246.09782774  .00000764  00000-0  66101-4 0  9999,2 52879  53.2168 177.8394 0001291  89.3159 270.7981 15.08843239 67881,6917.87,95.437,540.629,538.842,0.0
52879.0,STARLINK-4139,PAYLOAD,2023-09-03 05:31:38,15.08846288,0.0001316,53.2167,177.2438,91.2473,268.867,9.8383e-05,1.278e-05,0.0,0 STARLINK-4139,1 52879U 22062BB  23246.23030570  .00001278  00000-0  98383-4 0  9993,2 52879  53.2167 177.2438 0001316  91.2473 268.8670 15.08846288 67411,6917.861,95.437,540.637,538.816,0.0
52879.0,STARLINK-4139,PAYLOAD,2023-09-04 02:11:40,15.08834951,0.0001319,53.2168,173.378,88.052,272.0624,-8.0573e-05,-1.57e-05,0.0,0 STARLINK-4139,1 52879U 22062BB  23247.09143978 -.00001570  00000-0 -80573-4 0  9994,2 52879  53.2168 173.3780 0001319  88.0520 272.0624 15.08834951 68038,6917.896,95.438,540.673,538.848,0.0
52879.0,STARLINK-4139,PAYLOAD,2023-09-05 03:37:50,15.08841623,0.0001135,53.217,168.6218,89.7066,270.4056,9.4323e-05,1.214e-05,0.0,0 STARLINK-4139,1 52879U 22062BB  23248.15127654  .00001214  00000-0  94323-4 0  9996,2 52879  53.2170 168.6218 0001135  89.7066 270.4056 15.08841623 68195,6917.875,95.437,540.526,538.955,0.0
52879.0,STARLINK-4139,PAYLOAD,2023-09-06 05:04:00,15.08839466,0.0001131,53.217,163.8643,86.3695,273.7427,0.00017388,2.481e-05,0.0,0 STARLINK-4139,1 52879U 22062BB  23249.21112047  .00002481  00000-0  17388-3 0  9996,2 52879  53.2170 163.8643 0001131  86.3695 273.7427 15.08839466 68359,6917.882,95.438,540.529,538.965,0.0
52879.0,STARLINK-4139,PAYLOAD,2023-09-07 03:19:24,15.08846514,0.0001166,53.2168,159.7007,87.1751,272.9374,7.9969e-05,9.85e-06,0.0,0 STARLINK-4139,1 52879U 22062BB  23250.13847760  .00000985  00000-0  79969-4 0  9997,2 52879  53.2168 159.7007 0001166  87.1751 272.9374 15.08846514 68000,6917.86,95.437,540.532,538.919,0.0
52879.0,STARLINK-4139,PAYLOAD,2023-09-07 17:37:52,15.08844785,0.0002171,53.2119,157.0251,80.9538,279.17,9.1694e-05,1.172e-05,0.0,0 STARLINK-4139,1 52879U 22062BB  23250.73464060  .00001172  00000-0  91694-4 0  9999,2 52879  53.2119 157.0251 0002171  80.9538 279.1700 15.08844785 68582,6917.866,95.437,541.233,538.229,0.0
52879.0,STARLINK-4139,PAYLOAD,2023-09-08 03:10:11,15.0884396,0.0001217,53.2162,155.2399,94.0102,266.1029,6.6905e-05,7.77e-06,0.0,0 STARLINK-4139,1 52879U 22062BB  23251.13207844  .00000777  00000-0  66905-4 0  9996,2 52879  53.2162 155.2399 0001217  94.0102 266.1029 15.08843960 68153,6917.868,95.437,540.575,538.891,0.0
52879.0,STARLINK-4139,PAYLOAD,2023-09-08 23:50:11,15.08846183,0.0001251,53.2162,151.3754,88.1725,271.941,0.00015079,2.113e-05,0.0,0 STARLINK-4139,1 52879U 22062BB  23251.99319314  .00002113  00000-0  15079-3 0  9997,2 52879  53.2162 151.3754 0001251  88.1725 271.9410 15.08846183 68774,6917.861,95.437,540.592,538.861,0.0
52879.0,STARLINK-4139,PAYLOAD,2023-09-09 10:57:53,15.08848295,0.0001249,53.2161,149.2939,87.9069,272.2066,0.00015374,2.16e-05,0.0,0 STARLINK-4139,1 52879U 22062BB  23252.45687062  .00002160  00000-0  15374-3 0  9997,2 52879  53.2161 149.2939 0001249  87.9069 272.2066 15.08848295 68350,6917.855,95.437,540.584,538.856,0.0
52879.0,STARLINK-4139,PAYLOAD,2023-09-09 23:40:59,15.08843876,0.0001408,53.2174,146.9126,104.685,255.4298,3.9673e-05,3.44e-06,0.0,0 STARLINK-4139,1 52879U 22062BB  23252.98679637  .00000344  00000-0  39673-4 0  9995,2 52879  53.2174 146.9126 0001408 104.6850 255.4298 15.08843876 68921,6917.869,95.437,540.708,538.76,0.0
52879.0,STARLINK-4139,PAYLOAD,2023-09-10 02:51:45,15.08845727,0.0001287,53.217,146.3186,101.179,258.9347,6.3125e-05,7.17e-06,0.0,0 STARLINK-4139,1 52879U 22062BB  23253.11927443  .00000717  00000-0  63125-4 0  9995,2 52879  53.2170 146.3186 0001287 101.1790 258.9347 15.08845727 68455,6917.863,95.437,540.618,538.838,0.0
52879.0,STARLINK-4139,PAYLOAD,2023-09-11 02:42:33,15.08835234,0.0001351,53.2168,141.8576,96.1838,263.9308,1.6359e-05,-2.8e-07,0.0,0 STARLINK-4139,1 52879U 22062BB  23254.11288502 -.00000028  00000-0  16359-4 0  9995,2 52879  53.2168 141.8576 0001351  96.1838 263.9308 15.08835234 69099,6917.895,95.438,540.695,538.825,0.0
52879.0,STARLINK-4139,PAYLOAD,2023-09-11 09:04:05,15.08839494,0.000134,53.2168,140.6698,95.8699,264.2446,2.5495e-05,1.18e-06,0.0,0 STARLINK-4139,1 52879U 22062BB  23254.37784259  .00000118  00000-0  25495-4 0  9993,2 52879  53.2168 140.6698 0001340  95.8699 264.2446 15.08839494 68649,6917.882,95.438,540.674,538.82,0.0
52879.0,STARLINK-4139,PAYLOAD,2023-09-11 23:22:33,15.0884637,0.0001235,53.2167,137.9942,97.4765,262.6367,0.00011705,1.576e-05,0.0,0 STARLINK-4139,1 52879U 22062BB  23254.97399735  .00001576  00000-0  11705-3 0  9997,2 52879  53.2167 137.9942 0001235  97.4765 262.6367 15.08846370 69224,6917.861,95.437,540.58,538.872,0.0
52879.0,STARLINK-4139,PAYLOAD,2023-09-12 15:16:25,15.08834507,0.0001385,53.2157,135.0208,105.9827,254.1318,0.00013275,1.825e-05,0.0,0 STARLINK-4139,1 52879U 22062BB  23255.63640556  .00001825  00000-0  13275-3 0  9992,2 52879  53.2157 135.0208 0001385 105.9827 254.1318 15.08834507 69329,6917.897,95.438,540.72,538.804,0.0
52879.0,STARLINK-4139,PAYLOAD,2023-09-12 21:37:57,15.08841568,0.0001241,53.2169,133.8304,90.675,269.4385,0.00012328,1.675e-05,0.0,0 STARLINK-4139,1 52879U 22062BB  23255.90136324  .00001675  00000-0  12328-3 0  9996,2 52879  53.2169 133.8304 0001241  90.6750 269.4385 15.08841568 68878,6917.876,95.437,540.599,538.882,0.0
52879.0,STARLINK-4139,PAYLOAD,2023-09-12 23:13:20,15.08843086,0.0001302,53.2171,133.5346,98.2599,261.8541,0.00015677,2.208e-05,0.0,0 STARLINK-4139,1 52879U 22062BB  23255.96760107  .00002208  00000-0  15677-3 0  9997,2 52879  53.2171 133.5346 0001302  98.2599 261.8541 15.08843086 69370,6917.871,95.437,540.637,538.835,0.0
52879.0,STARLINK-4139,PAYLOAD,2023-09-13 21:28:44,15.08860438,0.0001282,53.2175,129.3709,105.1375,254.9759,-8.1748e-05,-1.589e-05,0.0,0 STARLINK-4139,1 52879U 22062BB  23256.89495429 -.00001589  00000-0 -81748-4 0  9998,2 52879  53.2175 129.3709 0001282 105.1375 254.9759 15.08860438 69023,6917.818,95.436,540.57,538.796,0.0
52879.0,STARLINK-4139,PAYLOAD,2023-09-14 00:39:30,15.08853991,0.0001247,53.2172,128.7752,95.4674,264.6461,7.4123e-05,8.92e-06,0.0,0 STARLINK-4139,1 52879U 22062BB  23257.02743289  .00000892  00000-0  74123-4 0  9997,2 52879  53.2172 128.7752 0001247  95.4674 264.6461 15.08853991 69535,6917.838,95.437,540.565,538.84,0.0
52879.0,STARLINK-4139,PAYLOAD,2023-09-14 21:19:32,15.08833175,0.0001285,53.2173,124.91,94.3028,265.8111,-4.2334e-05,-9.61e-06,0.0,0 STARLINK-4139,1 52879U 22062BB  23257.88857224 -.00000961  00000-0 -42334-4 0  9994,2 52879  53.2173 124.9100 0001285  94.3028 265.8111 15.08833175 69171,6917.901,95.438,540.655,538.877,0.0
52879.0,STARLINK-4139,PAYLOAD,2023-09-14 22:54:55,15.08834907,0.0001292,53.2173,124.6128,93.0911,267.0229,-2.5939e-05,-7.01e-06,0.0,0 STARLINK-4139,1 52879U 22062BB  23257.95481106 -.00000701  00000-0 -25939-4 0  9998,2 52879  53.2173 124.6128 0001292  93.0911 267.0229 15.08834907 69676,6917.896,95.438,540.655,538.867,0.0
